{
    "links": {
        "self": "http://www.neowsapp.com/rest/v1/neo/3878592?api_key=iIulBulltgU6a56xZRHN4H3l9WmuAYTsLGpBGhQ2"
    },
    "id": "3878592",
    "neo_reference_id": "3878592",
    "name": "(2019 TL3)",
    "designation": "2019 TL3",
    "nasa_jpl_url": "http://ssd.jpl.nasa.gov/sbdb.cgi?sstr=3878592",
    "absolute_magnitude_h": 24.9,
    "estimated_diameter": {
        "kilometers": {
            "estimated_diameter_min": 0.0278326768,
            "estimated_diameter_max": 0.0622357573
        },
        "meters": {
            "estimated_diameter_min": 27.8326768072,
            "estimated_diameter_max": 62.2357573367
        },
        "miles": {
            "estimated_diameter_min": 0.0172944182,
            "estimated_diameter_max": 0.0386714948
        },
        "feet": {
            "estimated_diameter_min": 91.3145593761,
            "estimated_diameter_max": 204.1855621004
        }
    },
    "is_potentially_hazardous_asteroid": false,
    "close_approach_data": [
        {
            "close_approach_date": "2019-10-07",
            "close_approach_date_full": "2019-Oct-07 09:25",
            "epoch_date_close_approach": 1570440300000,
            "relative_velocity": {
                "kilometers_per_second": "13.709358063",
                "kilometers_per_hour": "49353.6890269429",
                "miles_per_hour": "30666.4630512135"
            },
            "miss_distance": {
                "astronomical": "0.0240641454",
                "lunar": "9.3609525606",
                "kilometers": "3599944.895210298",
                "miles": "2236902.0313581924"
            },
            "orbiting_body": "Earth"
        }
    ],
    "orbital_data": {
        "orbit_id": "2",
        "orbit_determination_date": "2019-10-08 05:58:16",
        "first_observation_date": "2019-10-06",
        "last_observation_date": "2019-10-07",
        "data_arc_in_days": 1,
        "observations_used": 63,
        "orbit_uncertainty": "7",
        "minimum_orbit_intersection": ".022376",
        "jupiter_tisserand_invariant": "3.897",
        "epoch_osculation": "2459000.5",
        "eccentricity": ".4435871175087354",
        "semi_major_axis": "1.782471724485594",
        "inclination": "21.29065749263566",
        "ascending_node_longitude": "13.37927727458525",
        "orbital_period": "869.2253846329071",
        "perihelion_distance": ".9917902301802046",
        "perihelion_argument": "25.54953739193789",
        "aphelion_distance": "2.573153218790983",
        "perihelion_time": "2458784.924565050101",
        "mean_anomaly": "89.28312259856389",
        "mean_motion": ".4141618576314771",
        "equinox": "J2000",
        "orbit_class": {
            "orbit_class_type": "APO",
            "orbit_class_description": "Near-Earth asteroid orbits which cross the Earth’s orbit similar to that of 1862 Apollo",
            "orbit_class_range": "a (semi-major axis) > 1.0 AU; q (perihelion) < 1.017 AU"
        }
    },
    "is_sentry_object": false
}